<?xml version="1.0" encoding="utf-8" ?>
<kml xmlns="http://www.opengis.net/kml/2.2">
<Document id="root_doc">
<Folder><name>UAS_PFT_map_flight_100187_image_19633</name>
  <Placemark>
	<Style><LineStyle><color>ff0000ff</color></LineStyle><PolyStyle><fill>0</fill></PolyStyle></Style>
      <Polygon><outerBoundaryIs><LinearRing><coordinates>-164.575247699064,62.7539281441487 -164.572965002864,62.7539281441487 -164.572965002864,62.7555364044959 -164.575247699064,62.7555364044959 -164.575247699064,62.7539281441487</coordinates></LinearRing></outerBoundaryIs></Polygon>
  </Placemark>
</Folder>
</Document></kml>
