<?xml version="1.0" encoding="utf-8" ?>
<kml xmlns="http://www.opengis.net/kml/2.2">
<Document id="root_doc">
<Folder><name>UAS_PFT_map_flight_100130_image_2925</name>
  <Placemark>
	<Style><LineStyle><color>ff0000ff</color></LineStyle><PolyStyle><fill>0</fill></PolyStyle></Style>
      <Polygon><outerBoundaryIs><LinearRing><coordinates>-147.48550251311,65.1527830091113 -147.48160017481,65.1527830091113 -147.48160017481,65.1535636280561 -147.48550251311,65.1535636280561 -147.48550251311,65.1527830091113</coordinates></LinearRing></outerBoundaryIs></Polygon>
  </Placemark>
</Folder>
</Document></kml>
