<?xml version="1.0" encoding="utf-8" ?>
<kml xmlns="http://www.opengis.net/kml/2.2">
<Document id="root_doc">
<Folder><name>UAS_PFT_map_flight_100164_image_2440</name>
  <Placemark>
	<Style><LineStyle><color>ff0000ff</color></LineStyle><PolyStyle><fill>0</fill></PolyStyle></Style>
      <Polygon><outerBoundaryIs><LinearRing><coordinates>-148.349922627746,64.953126977721 -148.348791544519,64.953126977721 -148.348791544519,64.9540519959094 -148.349922627746,64.9540519959094 -148.349922627746,64.953126977721</coordinates></LinearRing></outerBoundaryIs></Polygon>
  </Placemark>
</Folder>
</Document></kml>
