<?xml version="1.0" encoding="utf-8" ?>
<kml xmlns="http://www.opengis.net/kml/2.2">
<Document id="root_doc">
<Folder><name>UAS_PFT_map_flight_100253_image_2000</name>
  <Placemark>
	<Style><LineStyle><color>ff0000ff</color></LineStyle><PolyStyle><fill>0</fill></PolyStyle></Style>
      <Polygon><outerBoundaryIs><LinearRing><coordinates>-148.953819383679,63.8064268662864 -148.952570734248,63.8064268662864 -148.952570734248,63.8072507333437 -148.953819383679,63.8072507333437 -148.953819383679,63.8064268662864</coordinates></LinearRing></outerBoundaryIs></Polygon>
  </Placemark>
</Folder>
</Document></kml>
