<?xml version="1.0" encoding="utf-8" ?>
<kml xmlns="http://www.opengis.net/kml/2.2">
<Document id="root_doc">
<Folder><name>UAS_PFT_map_flight_100179_image_0</name>
  <Placemark>
	<Style><LineStyle><color>ff0000ff</color></LineStyle><PolyStyle><fill>0</fill></PolyStyle></Style>
      <Polygon><outerBoundaryIs><LinearRing><coordinates>-148.434142849724,64.9505531373189 -148.431448557103,64.9505531373189 -148.431448557103,64.9520520095241 -148.434142849724,64.9520520095241 -148.434142849724,64.9505531373189</coordinates></LinearRing></outerBoundaryIs></Polygon>
  </Placemark>
</Folder>
</Document></kml>
